KUIPER-00096            
1 65135U 25171D   26063.47757907  .00006889  00000+0  93135-3 0  9993
2 65135  51.9008 181.1315 0000303 129.3928 230.7061 14.79948444 32126
KUIPER-00097            
1 65136U 25171E   26063.47489072  .00008803  00000+0  11820-2 0  9997
2 65136  51.9018 183.7697 0000325  83.2920 276.8079 14.79939730 32075
KUIPER-00098            
1 65137U 25171F   26062.59430704  .00006572  00000+0  88989-3 0  9990
2 65137  51.9007 190.0409 0001917 141.3340 218.7760 14.79952600 31269
KUIPER-00099            
1 65138U 25171G   26063.51756096  .00007935  00000+0  10704-2 0  9992
2 65138  51.9025 175.9506 0000550  45.1003 315.0004 14.79862150 32194
KUIPER-00100            
1 65139U 25171H   26063.48566885  .00004532  00000+0  62281-3 0  9992
2 65139  51.9016 173.5630 0000488  96.6064 263.4954 14.79946434 32227
KUIPER-00102            
1 65140U 25171J   26063.48291416  .00008487  00000+0  11395-2 0  9991
2 65140  51.8988 176.1019 0000559  84.2222 275.8805 14.79982140 32185
KUIPER-00103            
1 65141U 25171K   26062.62001332  .00005948  00000+0  80767-3 0  9992
2 65141  51.8989 197.4104 0002193 125.2704 234.8464 14.79980418 31816
KUIPER-00104            
1 65142U 25171L   26063.51126948  .00001769  00000+0  26111-3 0  9993
2 65142  51.9012 180.9295 0000712  54.7959 305.3070 14.79902268 32125
KUIPER-00105            
1 65143U 25171M   26063.33406692 -.00038773  00000+0 -50912-2 0  9993
2 65143  51.8998 189.3316 0001013  96.3040 263.8038 14.79893247 31995
KUIPER-00106            
1 65144U 25171N   26063.50361583  .00010520  00000+0  92140-3 0  9990
2 65144  51.8940 178.5372 0007926  83.1033 277.0838 14.97149195 32161
KUIPER-00107            
1 65145U 25171P   26063.48843606  .00009109  00000+0  12207-2 0  9995
2 65145  51.8998 171.0921 0000328  33.6691 326.4292 14.79988999 32269
KUIPER-00108            
1 65146U 25171Q   26063.50865694 -.00001830  00000+0 -21098-3 0  9994
2 65146  51.9036 183.5183 0001398 155.7205 204.3823 14.79941501 32090
KUIPER-00109            
1 65147U 25171R   26063.48027570  .00004941  00000+0  67643-3 0  9995
2 65147  51.9019 178.5855 0000563  88.7728 271.3299 14.79943613 32154
KUIPER-00110            
1 65148U 25171S   26063.50164842  .00008389  00000+0  11284-2 0  9992
2 65148  51.9011 191.0902 0001869 174.8095 185.2887 14.79920481 31977
KUIPER-00111            
1 65149U 25171T   26063.52875311  .00007311  00000+0  98519-3 0  9996
2 65149  51.8984 195.8687 0001860 138.5414 221.5690 14.80011008 31919
KUIPER-00112            
1 65150U 25171U   26063.51409964  .00007116  00000+0  96025-3 0  9997
2 65150  51.9033 178.4917 0000318 100.3946 259.7052 14.79987841 32151
KUIPER-00114            
1 65151U 25171V   26063.52623346  .00007651  00000+0  10308-2 0  9994
2 65151  51.9013 198.4363 0001291 130.4015 229.7060 14.79958309 31870
